KUIPER-00605            
1 69288U 26118X   26192.16668980  .00029786  00000+0  18551-2 0  9998
2 69288  51.8845 298.7935 0004173 300.8230   1.1423 15.09329243  2955
KUIPER-00606            
1 69289U 26118Y   26191.90879875  .00021949  00000+0  58178-3 0  9990
2 69289  51.8699 298.4148 0003518 258.9118 101.1473 15.38257138  7637
KUIPER-00607            
1 69290U 26118Z   26191.65698917  .00023448  00000+0  62664-3 0  9991
2 69290  51.8664 299.7219 0005104 262.8354  97.2053 15.37956315  7599
KUIPER-00608            
1 69291U 26118AA  26191.32995775  .00011186  00000+0  34418-3 0  9990
2 69291  51.8582 301.9839 0007643 280.3897  79.6227 15.34126766  7537
KUIPER-00610            
1 69292U 26118AB  26191.82932647  .00034232  00000+0  88568-3 0  9997
2 69292  51.8716 298.6341 0001704 268.4693  91.6099 15.38758793  7626
KUIPER-00613            
1 69293U 26118AC  26192.16668980 -.01075181  00000+0 -65792-1 0  9995
2 69293  51.8803 298.8401 0008704 273.1411 325.2972 15.12488534  4731
KUIPER-00618            
1 69294U 26118AD  26191.90052903  .00019002  00000+0  51799-3 0  9990
2 69294  51.8734 298.3669 0001059 326.5778  33.5141 15.37489142  7633
KUIPER-00620            
1 69295U 26118AE  26191.89371539  .00016002  00000+0  42126-3 0  9999
2 69295  51.8709 298.3188 0000767 249.7369 110.3536 15.38696604  7635
KUIPER-00423            
1 69592U 26140A   26191.89559370  .00010785  00000+0  28822-3 0  9994
2 69592  51.8792 283.8762 0013217 255.4125 104.5397 15.38546875  4880
KUIPER-00428            
1 69593U 26140B   26191.60443918  .00017931  00000+0  49861-3 0  9990
2 69593  51.8819 285.6699 0007867  17.4247 342.7009 15.36889910  4834
KUIPER-00481            
1 69594U 26140C   26192.23003926  .00023979  00000+0  63966-3 0  9993
2 69594  51.8766 282.3603 0011486 266.8235  93.1438 15.37951257  4933
KUIPER-00490            
1 69595U 26140D   26190.61509622  .00012304  00000+0  33518-3 0  9998
2 69595  51.8784 290.2809 0006475 318.9066  41.1433 15.37866213  4680
KUIPER-00493            
1 69596U 26140E   26191.80401117  .00016069  00000+0  45216-3 0  9991
2 69596  51.8784 284.7521 0007634  23.7231 336.4106 15.36606216  4864
KUIPER-00496            
1 69597U 26140F   26191.36564055  .00011083  00000+0  33772-3 0  9999
2 69597  51.8780 287.0540 0010383  37.4339 322.7368 15.34427947  4794
KUIPER-00513            
1 69598U 26140G   26191.91203824  .00014268  00000+0  38385-3 0  9998
2 69598  51.8811 283.9899 0008464 329.1913  30.8576 15.38099831  4887
KUIPER-00516            
1 69599U 26140H   26190.61880120  .00012103  00000+0  33370-3 0  9990
2 69599  51.8784 290.3069 0006835 334.1487  25.9157 15.37505084  4689
