{"fetched_at":"2026-07-11T09:23:55.576Z","source":"https://celestrak.org/NORAD/elements/gp.php?GROUP=kuiper&FORMAT=JSON","constellation":"kuiper","records":[{"OBJECT_NAME":"KUIPER-00605","OBJECT_ID":"2026-118X","EPOCH":"2026-07-11T04:00:01.998720","CLASSIFICATION_TYPE":"U","MEAN_MOTION":15.09329243,"ECCENTRICITY":0.0004173,"INCLINATION":51.8845,"RA_OF_ASC_NODE":298.7935,"ARG_OF_PERICENTER":300.823,"MEAN_ANOMALY":1.1423,"EPHEMERIS_TYPE":0,"NORAD_CAT_ID":69288,"ELEMENT_SET_NO":999,"REV_AT_EPOCH":295,"BSTAR":0.0018551,"MEAN_MOTION_DOT":0.00029786,"MEAN_MOTION_DDOT":0},{"OBJECT_NAME":"KUIPER-00606","OBJECT_ID":"2026-118Y","EPOCH":"2026-07-10T21:48:40.212000","CLASSIFICATION_TYPE":"U","MEAN_MOTION":15.38257138,"ECCENTRICITY":0.0003518,"INCLINATION":51.8699,"RA_OF_ASC_NODE":298.4148,"ARG_OF_PERICENTER":258.9118,"MEAN_ANOMALY":101.1473,"EPHEMERIS_TYPE":0,"NORAD_CAT_ID":69289,"ELEMENT_SET_NO":999,"REV_AT_EPOCH":763,"BSTAR":0.00058178,"MEAN_MOTION_DOT":0.00021949,"MEAN_MOTION_DDOT":0},{"OBJECT_NAME":"KUIPER-00607","OBJECT_ID":"2026-118Z","EPOCH":"2026-07-10T15:46:03.864288","CLASSIFICATION_TYPE":"U","MEAN_MOTION":15.37956315,"ECCENTRICITY":0.0005104,"INCLINATION":51.8664,"RA_OF_ASC_NODE":299.7219,"ARG_OF_PERICENTER":262.8354,"MEAN_ANOMALY":97.2053,"EPHEMERIS_TYPE":0,"NORAD_CAT_ID":69290,"ELEMENT_SET_NO":999,"REV_AT_EPOCH":759,"BSTAR":0.00062664,"MEAN_MOTION_DOT":0.00023448,"MEAN_MOTION_DDOT":0},{"OBJECT_NAME":"KUIPER-00608","OBJECT_ID":"2026-118AA","EPOCH":"2026-07-10T07:55:08.349600","CLASSIFICATION_TYPE":"U","MEAN_MOTION":15.34126766,"ECCENTRICITY":0.00076438,"INCLINATION":51.8582,"RA_OF_ASC_NODE":301.9839,"ARG_OF_PERICENTER":280.3897,"MEAN_ANOMALY":79.6227,"EPHEMERIS_TYPE":0,"NORAD_CAT_ID":69291,"ELEMENT_SET_NO":999,"REV_AT_EPOCH":753,"BSTAR":0.00034417714,"MEAN_MOTION_DOT":0.00011186,"MEAN_MOTION_DDOT":0},{"OBJECT_NAME":"KUIPER-00610","OBJECT_ID":"2026-118AB","EPOCH":"2026-07-10T19:54:13.807008","CLASSIFICATION_TYPE":"U","MEAN_MOTION":15.38758793,"ECCENTRICITY":0.0001704,"INCLINATION":51.8716,"RA_OF_ASC_NODE":298.6341,"ARG_OF_PERICENTER":268.4693,"MEAN_ANOMALY":91.6099,"EPHEMERIS_TYPE":0,"NORAD_CAT_ID":69292,"ELEMENT_SET_NO":999,"REV_AT_EPOCH":762,"BSTAR":0.00088568,"MEAN_MOTION_DOT":0.00034232,"MEAN_MOTION_DDOT":0},{"OBJECT_NAME":"KUIPER-00613","OBJECT_ID":"2026-118AC","EPOCH":"2026-07-11T04:00:01.998720","CLASSIFICATION_TYPE":"U","MEAN_MOTION":15.12488534,"ECCENTRICITY":0.0008704,"INCLINATION":51.8803,"RA_OF_ASC_NODE":298.8401,"ARG_OF_PERICENTER":273.1411,"MEAN_ANOMALY":325.2972,"EPHEMERIS_TYPE":0,"NORAD_CAT_ID":69293,"ELEMENT_SET_NO":999,"REV_AT_EPOCH":473,"BSTAR":-0.065792,"MEAN_MOTION_DOT":-0.01075181,"MEAN_MOTION_DDOT":0},{"OBJECT_NAME":"KUIPER-00618","OBJECT_ID":"2026-118AD","EPOCH":"2026-07-10T21:36:45.708192","CLASSIFICATION_TYPE":"U","MEAN_MOTION":15.37489142,"ECCENTRICITY":0.0001059,"INCLINATION":51.8734,"RA_OF_ASC_NODE":298.3669,"ARG_OF_PERICENTER":326.5778,"MEAN_ANOMALY":33.5141,"EPHEMERIS_TYPE":0,"NORAD_CAT_ID":69294,"ELEMENT_SET_NO":999,"REV_AT_EPOCH":763,"BSTAR":0.00051799,"MEAN_MOTION_DOT":0.00019002,"MEAN_MOTION_DDOT":0},{"OBJECT_NAME":"KUIPER-00620","OBJECT_ID":"2026-118AE","EPOCH":"2026-07-10T21:26:57.009696","CLASSIFICATION_TYPE":"U","MEAN_MOTION":15.38696604,"ECCENTRICITY":0.0000767,"INCLINATION":51.8709,"RA_OF_ASC_NODE":298.3188,"ARG_OF_PERICENTER":249.7369,"MEAN_ANOMALY":110.3536,"EPHEMERIS_TYPE":0,"NORAD_CAT_ID":69295,"ELEMENT_SET_NO":999,"REV_AT_EPOCH":763,"BSTAR":0.00042126,"MEAN_MOTION_DOT":0.00016002,"MEAN_MOTION_DDOT":0},{"OBJECT_NAME":"KUIPER-00423","OBJECT_ID":"2026-140A","EPOCH":"2026-07-10T21:29:39.295680","CLASSIFICATION_TYPE":"U","MEAN_MOTION":15.38546875,"ECCENTRICITY":0.0013217,"INCLINATION":51.8792,"RA_OF_ASC_NODE":283.8762,"ARG_OF_PERICENTER":255.4125,"MEAN_ANOMALY":104.5397,"EPHEMERIS_TYPE":0,"NORAD_CAT_ID":69592,"ELEMENT_SET_NO":999,"REV_AT_EPOCH":488,"BSTAR":0.00028822,"MEAN_MOTION_DOT":0.00010785,"MEAN_MOTION_DDOT":0},{"OBJECT_NAME":"KUIPER-00428","OBJECT_ID":"2026-140B","EPOCH":"2026-07-10T14:30:23.545152","CLASSIFICATION_TYPE":"U","MEAN_MOTION":15.3688991,"ECCENTRICITY":0.0007867,"INCLINATION":51.8819,"RA_OF_ASC_NODE":285.6699,"ARG_OF_PERICENTER":17.4247,"MEAN_ANOMALY":342.7009,"EPHEMERIS_TYPE":0,"NORAD_CAT_ID":69593,"ELEMENT_SET_NO":999,"REV_AT_EPOCH":483,"BSTAR":0.00049861,"MEAN_MOTION_DOT":0.00017931,"MEAN_MOTION_DDOT":0},{"OBJECT_NAME":"KUIPER-00481","OBJECT_ID":"2026-140C","EPOCH":"2026-07-11T05:31:15.392064","CLASSIFICATION_TYPE":"U","MEAN_MOTION":15.37951257,"ECCENTRICITY":0.0011486,"INCLINATION":51.8766,"RA_OF_ASC_NODE":282.3603,"ARG_OF_PERICENTER":266.8235,"MEAN_ANOMALY":93.1438,"EPHEMERIS_TYPE":0,"NORAD_CAT_ID":69594,"ELEMENT_SET_NO":999,"REV_AT_EPOCH":493,"BSTAR":0.00063966,"MEAN_MOTION_DOT":0.00023979,"MEAN_MOTION_DDOT":0},{"OBJECT_NAME":"KUIPER-00490","OBJECT_ID":"2026-140D","EPOCH":"2026-07-09T14:45:44.313408","CLASSIFICATION_TYPE":"U","MEAN_MOTION":15.37866213,"ECCENTRICITY":0.0006475,"INCLINATION":51.8784,"RA_OF_ASC_NODE":290.2809,"ARG_OF_PERICENTER":318.9066,"MEAN_ANOMALY":41.1433,"EPHEMERIS_TYPE":0,"NORAD_CAT_ID":69595,"ELEMENT_SET_NO":999,"REV_AT_EPOCH":468,"BSTAR":0.00033518,"MEAN_MOTION_DOT":0.00012304,"MEAN_MOTION_DDOT":0},{"OBJECT_NAME":"KUIPER-00493","OBJECT_ID":"2026-140E","EPOCH":"2026-07-10T19:17:46.565088","CLASSIFICATION_TYPE":"U","MEAN_MOTION":15.36606216,"ECCENTRICITY":0.0007634,"INCLINATION":51.8784,"RA_OF_ASC_NODE":284.7521,"ARG_OF_PERICENTER":23.7231,"MEAN_ANOMALY":336.4106,"EPHEMERIS_TYPE":0,"NORAD_CAT_ID":69596,"ELEMENT_SET_NO":999,"REV_AT_EPOCH":486,"BSTAR":0.00045216,"MEAN_MOTION_DOT":0.00016069,"MEAN_MOTION_DDOT":0},{"OBJECT_NAME":"KUIPER-00496","OBJECT_ID":"2026-140F","EPOCH":"2026-07-10T08:46:31.343520","CLASSIFICATION_TYPE":"U","MEAN_MOTION":15.34427947,"ECCENTRICITY":0.00103838,"INCLINATION":51.878,"RA_OF_ASC_NODE":287.054,"ARG_OF_PERICENTER":37.4339,"MEAN_ANOMALY":322.7368,"EPHEMERIS_TYPE":0,"NORAD_CAT_ID":69597,"ELEMENT_SET_NO":999,"REV_AT_EPOCH":479,"BSTAR":0.00033771893,"MEAN_MOTION_DOT":0.00011083,"MEAN_MOTION_DDOT":0},{"OBJECT_NAME":"KUIPER-00513","OBJECT_ID":"2026-140G","EPOCH":"2026-07-10T21:53:20.103936","CLASSIFICATION_TYPE":"U","MEAN_MOTION":15.38099831,"ECCENTRICITY":0.0008464,"INCLINATION":51.8811,"RA_OF_ASC_NODE":283.9899,"ARG_OF_PERICENTER":329.1913,"MEAN_ANOMALY":30.8576,"EPHEMERIS_TYPE":0,"NORAD_CAT_ID":69598,"ELEMENT_SET_NO":999,"REV_AT_EPOCH":488,"BSTAR":0.00038385,"MEAN_MOTION_DOT":0.00014268,"MEAN_MOTION_DDOT":0},{"OBJECT_NAME":"KUIPER-00516","OBJECT_ID":"2026-140H","EPOCH":"2026-07-09T14:51:04.423680","CLASSIFICATION_TYPE":"U","MEAN_MOTION":15.37505084,"ECCENTRICITY":0.00068355,"INCLINATION":51.8784,"RA_OF_ASC_NODE":290.3069,"ARG_OF_PERICENTER":334.1487,"MEAN_ANOMALY":25.9157,"EPHEMERIS_TYPE":0,"NORAD_CAT_ID":69599,"ELEMENT_SET_NO":999,"REV_AT_EPOCH":468,"BSTAR":0.00033369668,"MEAN_MOTION_DOT":0.00012103,"MEAN_MOTION_DDOT":0}]}
